[{"OBJECT_NAME":"BRO-14","OBJECT_ID":"2024-149CM","EPOCH":"2026-03-09T19:21:31.034016","MEAN_MOTION":14.95926897,"ECCENTRICITY":0.000793,"INCLINATION":97.6931,"RA_OF_ASC_NODE":146.3614,"ARG_OF_PERICENTER":74.9836,"MEAN_ANOMALY":285.2263,"EPHEMERIS_TYPE":0,"CLASSIFICATION_TYPE":"U","NORAD_CAT_ID":60551,"ELEMENT_SET_NO":999,"REV_AT_EPOCH":8513,"BSTAR":0.00014547278,"MEAN_MOTION_DOT":1.572e-5,"MEAN_MOTION_DDOT":0},{"OBJECT_NAME":"STARLINK-34576","OBJECT_ID":"2025-142F","EPOCH":"2026-03-09T21:21:00.309024","MEAN_MOTION":14.98370737,"ECCENTRICITY":0.00028434,"INCLINATION":70.0018,"RA_OF_ASC_NODE":313.8048,"ARG_OF_PERICENTER":267.5602,"MEAN_ANOMALY":92.5232,"EPHEMERIS_TYPE":0,"CLASSIFICATION_TYPE":"U","NORAD_CAT_ID":64701,"ELEMENT_SET_NO":999,"REV_AT_EPOCH":3950,"BSTAR":0.002065412,"MEAN_MOTION_DOT":0.00024664,"MEAN_MOTION_DDOT":0}]
